STARLINK-36909
1 67946U 26037Q   26092.83335647 -.02171123  00000+0 -83254-1 0  9999
2 67946  43.0011  54.0547 0001500 262.2340 206.6629 15.29400885  5911
